[{"OBJECT_NAME":"JACK E","OBJECT_ID":"2025-274E","EPOCH":"2026-03-09T18:40:25.511520","MEAN_MOTION":14.9265137,"ECCENTRICITY":0.0012643,"INCLINATION":97.7437,"RA_OF_ASC_NODE":359.4956,"ARG_OF_PERICENTER":334.1516,"MEAN_ANOMALY":25.907,"EPHEMERIS_TYPE":0,"CLASSIFICATION_TYPE":"U","NORAD_CAT_ID":66654,"ELEMENT_SET_NO":999,"REV_AT_EPOCH":1538,"BSTAR":0.00027190729,"MEAN_MOTION_DOT":2.749e-5,"MEAN_MOTION_DDOT":0},{"OBJECT_NAME":"PEGASUS DEB","OBJECT_ID":"1994-029AFF","EPOCH":"2026-03-01T16:04:44.690880","MEAN_MOTION":14.32824076,"ECCENTRICITY":0.02800459,"INCLINATION":81.7582,"RA_OF_ASC_NODE":195.9461,"ARG_OF_PERICENTER":327.6231,"MEAN_ANOMALY":30.8028,"EPHEMERIS_TYPE":0,"CLASSIFICATION_TYPE":"U","NORAD_CAT_ID":39320,"ELEMENT_SET_NO":999,"REV_AT_EPOCH":71186,"BSTAR":0.00038486055,"MEAN_MOTION_DOT":1.641e-5,"MEAN_MOTION_DDOT":0}]
